[{"OBJECT_NAME":"STARLINK-36780","OBJECT_ID":"2026-034S","EPOCH":"2026-03-21T22:06:13.342464","MEAN_MOTION":15.81015667,"ECCENTRICITY":9.419e-5,"INCLINATION":53.1583,"RA_OF_ASC_NODE":149.9151,"ARG_OF_PERICENTER":53.7568,"MEAN_ANOMALY":306.3542,"EPHEMERIS_TYPE":0,"CLASSIFICATION_TYPE":"U","NORAD_CAT_ID":67866,"ELEMENT_SET_NO":999,"REV_AT_EPOCH":587,"BSTAR":0.002119623,"MEAN_MOTION_DOT":0.00442737,"MEAN_MOTION_DDOT":0},{"OBJECT_NAME":"STARLINK-36761","OBJECT_ID":"2026-034T","EPOCH":"2026-03-21T22:05:08.480256","MEAN_MOTION":15.81016152,"ECCENTRICITY":0.00013267,"INCLINATION":53.1581,"RA_OF_ASC_NODE":149.9104,"ARG_OF_PERICENTER":56.5147,"MEAN_ANOMALY":303.6003,"EPHEMERIS_TYPE":0,"CLASSIFICATION_TYPE":"U","NORAD_CAT_ID":67867,"ELEMENT_SET_NO":999,"REV_AT_EPOCH":587,"BSTAR":0.0021792962,"MEAN_MOTION_DOT":0.00455923,"MEAN_MOTION_DDOT":0},{"OBJECT_NAME":"STARLINK-36762","OBJECT_ID":"2026-034U","EPOCH":"2026-03-21T22:04:03.789120","MEAN_MOTION":15.81080361,"ECCENTRICITY":0.00017261,"INCLINATION":53.1581,"RA_OF_ASC_NODE":149.906,"ARG_OF_PERICENTER":33.4549,"MEAN_ANOMALY":326.6583,"EPHEMERIS_TYPE":0,"CLASSIFICATION_TYPE":"U","NORAD_CAT_ID":67868,"ELEMENT_SET_NO":999,"REV_AT_EPOCH":587,"BSTAR":0.0030038963,"MEAN_MOTION_DOT":0.00644728,"MEAN_MOTION_DDOT":0},{"OBJECT_NAME":"STARLINK-36779","OBJECT_ID":"2026-034V","EPOCH":"2026-03-21T22:02:58.729920","MEAN_MOTION":15.80998986,"ECCENTRICITY":6.634e-5,"INCLINATION":53.1584,"RA_OF_ASC_NODE":149.9014,"ARG_OF_PERICENTER":37.5527,"MEAN_ANOMALY":322.5542,"EPHEMERIS_TYPE":0,"CLASSIFICATION_TYPE":"U","NORAD_CAT_ID":67869,"ELEMENT_SET_NO":999,"REV_AT_EPOCH":587,"BSTAR":0.001915506,"MEAN_MOTION_DOT":0.00397618,"MEAN_MOTION_DDOT":0},{"OBJECT_NAME":"STARLINK-36770","OBJECT_ID":"2026-034W","EPOCH":"2026-03-21T22:00:49.619808","MEAN_MOTION":15.81015526,"ECCENTRICITY":0.00021756,"INCLINATION":53.1587,"RA_OF_ASC_NODE":149.8902,"ARG_OF_PERICENTER":71.9237,"MEAN_ANOMALY":288.2022,"EPHEMERIS_TYPE":0,"CLASSIFICATION_TYPE":"U","NORAD_CAT_ID":67870,"ELEMENT_SET_NO":999,"REV_AT_EPOCH":587,"BSTAR":0.0017972291,"MEAN_MOTION_DOT":0.00372166,"MEAN_MOTION_DDOT":0},{"OBJECT_NAME":"STARLINK-36769","OBJECT_ID":"2026-034X","EPOCH":"2026-03-21T22:01:54.339456","MEAN_MOTION":15.8105893,"ECCENTRICITY":0.00019014,"INCLINATION":53.158,"RA_OF_ASC_NODE":149.8951,"ARG_OF_PERICENTER":60.729,"MEAN_ANOMALY":299.3922,"EPHEMERIS_TYPE":0,"CLASSIFICATION_TYPE":"U","NORAD_CAT_ID":67871,"ELEMENT_SET_NO":999,"REV_AT_EPOCH":587,"BSTAR":0.0025776856,"MEAN_MOTION_DOT":0.00546215,"MEAN_MOTION_DDOT":0},{"OBJECT_NAME":"STARLINK-36786","OBJECT_ID":"2026-034Y","EPOCH":"2026-03-21T11:22:28.564608","MEAN_MOTION":15.80869886,"ECCENTRICITY":0.00023902,"INCLINATION":53.1583,"RA_OF_ASC_NODE":152.1037,"ARG_OF_PERICENTER":103.6719,"MEAN_ANOMALY":256.457,"EPHEMERIS_TYPE":0,"CLASSIFICATION_TYPE":"U","NORAD_CAT_ID":67872,"ELEMENT_SET_NO":999,"REV_AT_EPOCH":580,"BSTAR":0.0022177445,"MEAN_MOTION_DOT":0.00461131,"MEAN_MOTION_DDOT":0},{"OBJECT_NAME":"STARLINK-36783","OBJECT_ID":"2026-034Z","EPOCH":"2026-03-21T21:58:39.605088","MEAN_MOTION":15.81011889,"ECCENTRICITY":0.00013012,"INCLINATION":53.1586,"RA_OF_ASC_NODE":149.8801,"ARG_OF_PERICENTER":31.0068,"MEAN_ANOMALY":329.1032,"EPHEMERIS_TYPE":0,"CLASSIFICATION_TYPE":"U","NORAD_CAT_ID":67873,"ELEMENT_SET_NO":999,"REV_AT_EPOCH":587,"BSTAR":0.0020448771,"MEAN_MOTION_DOT":0.0042618,"MEAN_MOTION_DDOT":0},{"OBJECT_NAME":"STARLINK-36730","OBJECT_ID":"2026-034AA","EPOCH":"2026-03-21T21:57:34.950240","MEAN_MOTION":15.80999033,"ECCENTRICITY":0.0001945,"INCLINATION":53.1575,"RA_OF_ASC_NODE":149.8763,"ARG_OF_PERICENTER":49.0033,"MEAN_ANOMALY":311.1158,"EPHEMERIS_TYPE":0,"CLASSIFICATION_TYPE":"U","NORAD_CAT_ID":67874,"ELEMENT_SET_NO":999,"REV_AT_EPOCH":587,"BSTAR":0.0019230842,"MEAN_MOTION_DOT":0.00399241,"MEAN_MOTION_DDOT":0},{"OBJECT_NAME":"STARLINK-36727","OBJECT_ID":"2026-034AB","EPOCH":"2026-03-21T21:56:30.112224","MEAN_MOTION":15.81072762,"ECCENTRICITY":0.00017611,"INCLINATION":53.1575,"RA_OF_ASC_NODE":149.8701,"ARG_OF_PERICENTER":36.832,"MEAN_ANOMALY":323.2824,"EPHEMERIS_TYPE":0,"CLASSIFICATION_TYPE":"U","NORAD_CAT_ID":67875,"ELEMENT_SET_NO":999,"REV_AT_EPOCH":587,"BSTAR":0.0029033368,"MEAN_MOTION_DOT":0.00621173,"MEAN_MOTION_DDOT":0},{"OBJECT_NAME":"STARLINK-36743","OBJECT_ID":"2026-034AC","EPOCH":"2026-03-21T21:55:29.754048","MEAN_MOTION":15.80806877,"ECCENTRICITY":0.00039302,"INCLINATION":53.1576,"RA_OF_ASC_NODE":149.8651,"ARG_OF_PERICENTER":349.0903,"MEAN_ANOMALY":11.0034,"EPHEMERIS_TYPE":0,"CLASSIFICATION_TYPE":"U","NORAD_CAT_ID":67876,"ELEMENT_SET_NO":999,"REV_AT_EPOCH":587,"BSTAR":0.0023591927,"MEAN_MOTION_DOT":0.00490918,"MEAN_MOTION_DDOT":0},{"OBJECT_NAME":"STARLINK-36784","OBJECT_ID":"2026-034AD","EPOCH":"2026-03-21T22:00:00.999936","MEAN_MOTION":15.6531326,"ECCENTRICITY":7.712e-5,"INCLINATION":53.1594,"RA_OF_ASC_NODE":150.0547,"ARG_OF_PERICENTER":70.7688,"MEAN_ANOMALY":207.3915,"EPHEMERIS_TYPE":0,"CLASSIFICATION_TYPE":"U","NORAD_CAT_ID":67877,"ELEMENT_SET_NO":999,"REV_AT_EPOCH":582,"BSTAR":-0.022124569,"MEAN_MOTION_DOT":-0.01975541,"MEAN_MOTION_DDOT":0},{"OBJECT_NAME":"STARLINK-36689","OBJECT_ID":"2026-034AE","EPOCH":"2026-03-21T12:47:01.283136","MEAN_MOTION":15.80939808,"ECCENTRICITY":0.00012148,"INCLINATION":53.1577,"RA_OF_ASC_NODE":151.7568,"ARG_OF_PERICENTER":113.2559,"MEAN_ANOMALY":246.8592,"EPHEMERIS_TYPE":0,"CLASSIFICATION_TYPE":"U","NORAD_CAT_ID":67878,"ELEMENT_SET_NO":999,"REV_AT_EPOCH":581,"BSTAR":0.0012315326,"MEAN_MOTION_DOT":0.00250312,"MEAN_MOTION_DDOT":0},{"OBJECT_NAME":"STARLINK-36818","OBJECT_ID":"2026-035A","EPOCH":"2026-03-21T18:26:56.671872","MEAN_MOTION":15.75302336,"ECCENTRICITY":9.799e-5,"INCLINATION":97.2864,"RA_OF_ASC_NODE":13.7444,"ARG_OF_PERICENTER":86.0715,"MEAN_ANOMALY":274.0662,"EPHEMERIS_TYPE":0,"CLASSIFICATION_TYPE":"U","NORAD_CAT_ID":67879,"ELEMENT_SET_NO":999,"REV_AT_EPOCH":574,"BSTAR":0.0011678851,"MEAN_MOTION_DOT":0.00178624,"MEAN_MOTION_DDOT":0},{"OBJECT_NAME":"STARLINK-36821","OBJECT_ID":"2026-035B","EPOCH":"2026-03-21T18:22:52.768128","MEAN_MOTION":15.75255668,"ECCENTRICITY":0.00020853,"INCLINATION":97.2842,"RA_OF_ASC_NODE":13.7472,"ARG_OF_PERICENTER":113.8424,"MEAN_ANOMALY":246.306,"EPHEMERIS_TYPE":0,"CLASSIFICATION_TYPE":"U","NORAD_CAT_ID":67880,"ELEMENT_SET_NO":999,"REV_AT_EPOCH":574,"BSTAR":0.0010163972,"MEAN_MOTION_DOT":0.00154694,"MEAN_MOTION_DDOT":0},{"OBJECT_NAME":"STARLINK-36808","OBJECT_ID":"2026-035C","EPOCH":"2026-03-21T19:18:34.446240","MEAN_MOTION":15.80878238,"ECCENTRICITY":0.00020066,"INCLINATION":97.2885,"RA_OF_ASC_NODE":13.8453,"ARG_OF_PERICENTER":119.7253,"MEAN_ANOMALY":240.4215,"EPHEMERIS_TYPE":0,"CLASSIFICATION_TYPE":"U","NORAD_CAT_ID":67881,"ELEMENT_SET_NO":999,"REV_AT_EPOCH":575,"BSTAR":0.0012900322,"MEAN_MOTION_DOT":0.0025505,"MEAN_MOTION_DDOT":0}]
