STARLINK-36780          
1 67866U 26034S   26080.92098776  .00442737  00000+0  21196-2 0  9999
2 67866  53.1583 149.9151 0000941  53.7568 306.3542 15.81015667  5871
STARLINK-36761          
1 67867U 26034T   26080.92023704  .00455923  00000+0  21793-2 0  9993
2 67867  53.1581 149.9104 0001326  56.5147 303.6003 15.81016152  5872
STARLINK-36762          
1 67868U 26034U   26080.91948830  .00644728  00000+0  30039-2 0  9995
2 67868  53.1581 149.9060 0001726  33.4549 326.6583 15.81080361  5879
STARLINK-36779          
1 67869U 26034V   26080.91873530  .00397618  00000+0  19155-2 0  9999
2 67869  53.1584 149.9014 0000663  37.5527 322.5542 15.80998986  5872
STARLINK-36770          
1 67870U 26034W   26080.91724097  .00372166  00000+0  17972-2 0  9990
2 67870  53.1587 149.8902 0002175  71.9237 288.2022 15.81015526  5874
STARLINK-36769          
1 67871U 26034X   26080.91799004  .00546215  00000+0  25777-2 0  9991
2 67871  53.1580 149.8951 0001901  60.7290 299.3922 15.81058930  5871
STARLINK-36786          
1 67872U 26034Y   26080.47394172  .00461131  00000+0  22177-2 0  9994
2 67872  53.1583 152.1037 0002390 103.6719 256.4570 15.80869886  5808
STARLINK-36783          
1 67873U 26034Z   26080.91573617  .00426180  00000+0  20449-2 0  9992
2 67873  53.1586 149.8801 0001301  31.0068 329.1032 15.81011889  5877
STARLINK-36730          
1 67874U 26034AA  26080.91498785  .00399241  00000+0  19231-2 0  9999
2 67874  53.1575 149.8763 0001945  49.0033 311.1158 15.80999033  5873
STARLINK-36727          
1 67875U 26034AB  26080.91423741  .00621173  00000+0  29033-2 0  9993
2 67875  53.1575 149.8701 0001761  36.8320 323.2824 15.81072762  5871
STARLINK-36743          
1 67876U 26034AC  26080.91353882  .00490918  00000+0  23592-2 0  9997
2 67876  53.1576 149.8651 0003930 349.0903  11.0034 15.80806877  5879
STARLINK-36784          
1 67877U 26034AD  26080.91667824 -.01975541  00000+0 -22125-1 0  9995
2 67877  53.1594 150.0547 0000771  70.7688 207.3915 15.65313260  5821
STARLINK-36689          
1 67878U 26034AE  26080.53265374  .00250312  00000+0  12315-2 0  9998
2 67878  53.1577 151.7568 0001214 113.2559 246.8592 15.80939808  5814
STARLINK-36818          
1 67879U 26035A   26080.76871148  .00178624  00000+0  11679-2 0  9994
2 67879  97.2864  13.7444 0000979  86.0715 274.0662 15.75302336  5748
STARLINK-36821          
1 67880U 26035B   26080.76588852  .00154694  00000+0  10164-2 0  9992
2 67880  97.2842  13.7472 0002085 113.8424 246.3060 15.75255668  5742
STARLINK-36808          
1 67881U 26035C   26080.80456535  .00255050  00000+0  12900-2 0  9998
2 67881  97.2885  13.8453 0002006 119.7253 240.4215 15.80878238  5756
